1  8820U 76039A   04150.90201520 +.00000019 +00000-0 +10000-3 0  9996
2  8820 109.8517 300.6855 0044318 227.0965 132.5815 06.38664659399266
1  8820U 76039A   04151.84156229 +.00000015 +00000-0 +10000-3 0  9991
2  8820 109.8519 301.0075 0044289 226.8833 132.7951 06.38664661399328
1  8820U 76039A   04152.93770039 +.00000011 +00000-0 +10000-3 0  9999
2  8820 109.8520 301.3832 0044280 226.6733 133.0044 06.38664656399390
1  8820U 76039A   04153.87724725 +.00000008 +00000-0 +10000-3 0  9990
2  8820 109.8521 301.7050 0044263 226.4769 133.2006 06.38664666399453
1  8820U 76039A   04154.97338602 +.00000007 +00000-0 +10000-3 0  9996
2  8820 109.8527 302.0804 0044156 226.2166 133.4619 06.38664641399523
1  8820U 76039A   04155.75634227 +.00000007 +00000-0 +10000-3 0  9995
2  8820 109.8528 302.3486 0044207 226.0615 133.6168 06.38664611399570
1  8820U 76039A   04156.85248152 +.00000009 +00000-0 +10000-3 0  9997
2  8820 109.8528 302.7240 0044205 225.8017 133.8786 06.38664616399644
1  8820U 76039A   04157.79202935 +.00000012 +00000-0 +10000-3 0  9994
2  8820 109.8529 303.0458 0044211 225.5852 134.0970 06.38664635399707
1  8820U 76039A   04158.88816917 +.00000014 +00000-0 +10000-3 0  9998
2  8820 109.8531 303.4214 0044201 225.3540 134.3308 06.38664621399775
1  8820U 76039A   04159.82771722 +.00000015 +00000-0 +10000-3 0  9998
2  8820 109.8533 303.7432 0044197 225.1661 134.5209 06.38664631399838
1  8820U 76039A   04160.76726538 +.00000015 +00000-0 +10000-3 0  9998
2  8820 109.8561 304.0649 0044152 225.0365 134.6526 06.38664622399893
1  8820U 76039A   04161.86340464 +.00000012 +00000-0 +10000-3 0  9997
2  8820 109.8563 304.4403 0044142 224.7931 134.8980 06.38664627399960
1  8820U 76039A   04162.80295149 +.00000009 +00000-0 +10000-3 0  9997
2  8820 109.8553 304.7624 0044187 224.5893 135.1027 06.38664680400026
1  8820U 76039A   04163.89909053 +.00000003 +00000-0 +10000-3 0  9997
2  8820 109.8555 305.1374 0044191 224.3696 135.3230 06.38664654400095
1  8820U 76039A   04164.83863788 -.00000001 +00000-0 +10000-3 0  9995
2  8820 109.8558 305.4597 0044196 224.1572 135.5360 06.38664651400154
1 08820U 76039A   04153.56406459  .00000009  00000-0  10000-3 0  9998
2 08820 109.8521 301.5978 0044264 226.5456 133.1312  6.38664666399432
1 08820U 76039A   04154.81679460  .00000007  00000-0  10000-3 0  9999
2 08820 109.8527 302.0268 0044156 226.2505 133.4275  6.38664641399511
1 08820U 76039A   04158.88816917  .00000014  00000-0  10000-3 0  9998
2 08820 109.8531 303.4214 0044201 225.3540 134.3308  6.38664621399775
1 08820U 76039A   04163.11613400  .00000007  00000-0  10000-3 0  9994
2 08820 109.8553 304.8697 0044195 224.4874 135.2054  6.38664688400045